SL-3 R/B                
1 13403U 82079B   26084.80894061  .00004947  00000+0  19535-3 0  9992
2 13403  81.1481 174.0452 0025548 111.7030 248.6928 15.25013148380152
SL-14 R/B               
1 13553U 82092B   26084.88511267  .00000417  00000+0  44101-4 0  9991
2 13553  82.5663 126.2495 0018895 245.5846 287.0070 14.86680484331339
SL-3 R/B                
1 13819U 83010B   26084.15894829  .00013701  00000+0  27048-3 0  9995
2 13819  81.1050 343.2767 0016395 359.1120   1.0093 15.46876068360335
SL-3 R/B                
1 14208U 83075B   26084.81603465  .00010250  00000+0  26737-3 0  9996
2 14208  97.6147  90.0088 0021896 166.8285 193.3536 15.38787370332634
COSMOS 1536             
1 14699U 84013A   26084.74140810  .00006434  00000+0  26350-3 0  9995
2 14699  82.5420  91.8876 0013057 219.8237 140.2043 15.24036786275065
SL-14 R/B               
1 14820U 84027B   26084.65202483  .00000515  00000+0  56047-4 0  9992
2 14820  82.5409 230.0399 0016491 281.5821  78.3544 14.85992360250004
SL-8 R/B                
1 15483U 85006B   26084.45140903  .00000325  00000+0  11625-3 0  9993
2 15483  74.0444 232.1428 0017810 145.5024 270.1591 14.37794350156297
SL-12 R/B(2)            
1 15772U 85042D   26084.68429566  .00000142  00000+0  85184-4 0  9993
2 15772  71.1079  53.9337 0032858 101.6116  70.3588 14.21986803116664
SL-14 R/B               
1 15945U 85069B   26084.49732146  .00000508  00000+0  54546-4 0  9998
2 15945  82.5304  10.0725 0019817 136.5027 223.7757 14.86449881175181
SL-16 R/B               
1 16182U 85097B   26084.82577104  .00000076  00000+0  62135-4 0  9994
2 16182  71.0009 106.5820 0009510 240.8578 292.0399 14.16603237 89518
SL-14 R/B               
1 16496U 86006B   26084.40302427  .00000845  00000+0  87224-4 0  9991
2 16496  82.5245 244.9443 0075552 219.7679 139.7986 14.86838000151546
COSMOS 1743             
1 16719U 86034A   26084.36608971  .00040950  00000+0  50875-3 0  9990
2 16719  82.5306  57.3612 0003578 182.1706 177.9536 15.59802629182693
